H1 CPF 01  gfz 2022 04 12 00  6021 tandemx   
H2 1003001  6202 36605    2022 04 12 00 59 42 2022 04 17 00 00 42   120 1 1  0 0 0
H9
10 0 59681  69822.000000  0    -666500.690   1194497.626  -6758474.154
10 0 59681  69942.000000  0     193926.080    883736.160  -6835941.619
10 0 59681  70062.000000  0    1045294.610    542698.537  -6794225.775
10 0 59681  70182.000000  0    1872388.609    177579.375  -6634043.517
10 0 59681  70302.000000  0    2660515.885   -204748.074  -6358149.100
10 0 59681  70422.000000  0    3395764.474   -596857.096  -5971292.470
10 0 59681  70542.000000  0    4065245.689   -990907.169  -5480144.862
10 0 59681  70662.000000  0    4657320.225  -1378795.590  -4893195.478
10 0 59681  70782.000000  0    5161805.974  -1752320.427  -4220616.730
10 0 59681  70902.000000  0    5570161.102  -2103350.193  -3474098.408
10 0 59681  71022.000000  0    5875639.147  -2423997.223  -2666652.827
10 0 59681  71142.000000  0    6073411.738  -2706791.281  -1812392.616
10 0 59681  71262.000000  0    6160654.912  -2944848.815   -926285.171
10 0 59681  71382.000000  0    6136597.344  -3132033.884    -23888.337
10 0 59681  71502.000000  0    6002527.817  -3263106.588    878928.184
10 0 59681  71622.000000  0    5761762.328  -3333855.189   1766269.873
10 0 59681  71742.000000  0    5419568.100  -3341207.302   2622507.635
10 0 59681  71862.000000  0    4983048.063  -3283317.755   3432560.920
10 0 59681  71982.000000  0    4460989.796  -3159630.126   4182170.106
10 0 59681  72102.000000  0    3863683.725  -2970911.843   4858150.945
10 0 59681  72222.000000  0    3202712.910  -2719262.635   5448629.124
10 0 59681  72342.000000  0    2490720.255  -2408093.873   5943246.772
10 0 59681  72462.000000  0    1741160.732  -2042081.574   6333339.834
10 0 59681  72582.000000  0     968042.559  -1627094.355   6612084.268
10 0 59681  72702.000000  0     185662.465  -1170097.156   6774609.406
10 0 59681  72822.000000  0    -591659.443   -679032.566   6818077.469
10 0 59681  72942.000000  0   -1349840.931   -162682.225   6741729.282
10 0 59681  73062.000000  0   -2075291.656    369489.916   6546896.730
10 0 59681  73182.000000  0   -2755156.038    907510.479   6236981.176
10 0 59681  73302.000000  0   -3377541.668   1441082.586   5817398.103
10 0 59681  73422.000000  0   -3931730.008   1959782.107   5295488.661
10 0 59681  73542.000000  0   -4408366.307   2453261.663   4680397.947
10 0 59681  73662.000000  0   -4799624.439   2911458.530   3982919.615
10 0 59681  73782.000000  0   -5099341.762   3324800.950   3215309.138
10 0 59681  73902.000000  0   -5303122.471   3684409.565   2391070.119
10 0 59681  74022.000000  0   -5408406.857   3982289.680   1524715.548
10 0 59681  74142.000000  0   -5414504.269   4211508.766    631506.922
10 0 59681  74262.000000  0   -5322586.841   4366353.630   -272822.392
10 0 59681  74382.000000  0   -5135646.214   4442464.269  -1172352.255
10 0 59681  74502.000000  0   -4858413.567   4436941.427  -2051265.791
10 0 59681  74622.000000  0   -4497243.415   4348423.005  -2894136.690
10 0 59681  74742.000000  0   -4059965.850   4177128.102  -3686205.426
10 0 59681  74862.000000  0   -3555711.617   3924868.939  -4413639.147
10 0 59681  74982.000000  0   -2994715.495   3595031.162  -5063770.000
10 0 59681  75102.000000  0   -2388104.433   3192523.852  -5625308.198
10 0 59681  75222.000000  0   -1747674.494   2723701.749  -6088529.746
10 0 59681  75342.000000  0   -1085659.540   2196259.286  -6445434.535
10 0 59681  75462.000000  0    -414498.579   1619100.540  -6689872.135
10 0 59681  75582.000000  0     253394.272   1002188.224  -6817637.055
10 0 59681  75702.000000  0     905853.337    356373.736  -6826533.414
10 0 59681  75822.000000  0    1531178.512   -306789.914  -6716409.775
10 0 59681  75942.000000  0    2118340.115   -975250.312  -6489159.865
10 0 59681  76062.000000  0    2657168.807  -1636668.714  -6148693.727
10 0 59681  76182.000000  0    3138529.646  -2278641.923  -5700877.576
10 0 59681  76302.000000  0    3554477.657  -2888930.883  -5153444.757
10 0 59681  76422.000000  0    3898393.178  -3455694.426  -4515873.016
10 0 59681  76542.000000  0    4165090.663  -3967719.405  -3799229.701
10 0 59681  76662.000000  0    4350901.893  -4414644.627  -3015990.107
10 0 59681  76782.000000  0    4453732.011  -4787175.127  -2179827.536
10 0 59681  76902.000000  0    4473085.141  -5077280.979  -1305377.753
10 0 59681  77022.000000  0    4410057.264  -5278375.328   -407981.381
10 0 59681  77142.000000  0    4267296.822  -5385465.294    496590.080
10 0 59681  77262.000000  0    4048933.799  -5395273.046   1392418.487
10 0 59681  77382.000000  0    3760478.259  -5306322.294   2263728.945
10 0 59681  77502.000000  0    3408690.012  -5118987.686   3095175.937
10 0 59681  77622.000000  0    3001424.643  -4835507.899   3872120.865
10 0 59681  77742.000000  0    2547459.146  -4459959.873   4580895.045
10 0 59681  77862.000000  0    2056302.231  -3998196.409   5209042.833
10 0 59681  77982.000000  0    1537993.534  -3457748.830   5745540.109
10 0 59681  78102.000000  0    1002896.161  -2847696.647   6180985.206
10 0 59681  78222.000000  0     461487.665  -2178508.467   6507757.692
10 0 59681  78342.000000  0     -75845.722  -1461857.838   6720144.824
10 0 59681  78462.000000  0    -599007.362   -710417.490   6814436.083
10 0 59681  78582.000000  0   -1098378.814     62366.497   6788984.546
10 0 59681  78702.000000  0   -1564996.058    842515.330   6644233.602
10 0 59681  78822.000000  0   -1990709.975   1615769.756   6382709.465
10 0 59681  78942.000000  0   -2368329.155   2367849.817   6008979.869
10 0 59681  79062.000000  0   -2691742.376   3084718.817   5529579.212
10 0 59681  79182.000000  0   -2956019.373   3752847.151   4952900.735
10 0 59681  79302.000000  0   -3157488.879   4359471.772   4289055.936
10 0 59681  79422.000000  0   -3293790.795   4892846.121   3549701.856
10 0 59681  79542.000000  0   -3363901.661   5342475.147   2747838.416
10 0 59681  79662.000000  0   -3368132.214   5699328.996   1897578.672
10 0 59681  79782.000000  0   -3308097.515   5956029.661   1013896.876
10 0 59681  79902.000000  0   -3186659.914   6107008.212    112359.756
10 0 59681  80022.000000  0   -3007846.127   6148627.347   -791156.152
10 0 59681  80142.000000  0   -2776740.908   6079264.477  -1680754.405
10 0 59681  80262.000000  0   -2499357.704   5899352.306  -2540809.414
10 0 59681  80382.000000  0   -2182490.760   5611375.840  -3356246.309
10 0 59681  80502.000000  0   -1833555.404   5219831.593  -4112807.093
10 0 59681  80622.000000  0   -1460419.273   4731146.292  -4797299.275
10 0 59681  80742.000000  0   -1071229.377   4153560.261  -5397820.032
10 0 59681  80862.000000  0    -674238.257   3496979.447  -5903955.823
10 0 59681  80982.000000  0    -277632.298   2772797.084  -6306954.019
10 0 59681  81102.000000  0     110633.386   1993689.656  -6599862.360
10 0 59681  81222.000000  0     482989.574   1173393.987  -6777637.462
10 0 59681  81342.000000  0     832396.050    326466.815  -6837223.304
10 0 59681  81462.000000  0    1152471.155   -531969.206  -6777597.792
10 0 59681  81582.000000  0    1437604.870  -1386489.960  -6599787.080
10 0 59681  81702.000000  0    1683054.474  -2221639.113  -6306849.043
10 0 59681  81822.000000  0    1885022.771  -3022200.460  -5903827.379
10 0 59681  81942.000000  0    2040716.958  -3773471.683  -5397675.576
10 0 59681  82062.000000  0    2148387.243  -4461535.641  -4797147.367
10 0 59681  82182.000000  0    2207343.973  -5073519.731  -4112655.212
10 0 59681  82302.000000  0    2217953.438  -5597841.980  -3356100.850
10 0 59681  82422.000000  0    2181611.709  -6024439.529  -2540676.808
10 0 59681  82542.000000  0    2100696.640  -6344973.279  -1680641.345
10 0 59681  82662.000000  0    1978497.612  -6553001.952   -791069.760
10 0 59681  82782.000000  0    1819127.985  -6644122.081    112413.486
10 0 59681  82902.000000  0    1627417.607  -6616065.838   1013916.068
10 0 59681  83022.000000  0    1408791.208  -6468759.962   1897564.521
10 0 59681  83142.000000  0    1169133.887  -6204338.127   2747794.983
10 0 59681  83262.000000  0     914647.687  -5827107.557   3549635.012
10 0 59681  83382.000000  0     651702.961  -5343473.404   4288973.263
10 0 59681  83502.000000  0     386688.966  -4761822.167   4952811.031
10 0 59681  83622.000000  0     125866.229  -4092366.913   5529491.887
10 0 59681  83742.000000  0    -124774.143  -3346957.754   6008904.599
10 0 59681  83862.000000  0    -359641.782  -2538862.204   6382655.650
10 0 59681  83982.000000  0    -573666.966  -1682522.929   6644208.598
10 0 59681  84102.000000  0    -762406.158   -793297.246   6788992.614
10 0 59681  84222.000000  0    -922131.803    112819.905   6814478.819
10 0 59681  84342.000000  0   -1049905.046   1019484.375   6720221.909
10 0 59681  84462.000000  0   -1143629.295   1910297.288   6507867.131
10 0 59681  84582.000000  0   -1202084.387   2769101.090   6181123.343
10 0 59681  84702.000000  0   -1224941.465   3580273.118   5745702.316
10 0 59681  84822.000000  0   -1212757.710   4329012.209   5209224.098
10 0 59681  84942.000000  0   -1166950.734   5001613.410   4581090.194
10 0 59681  85062.000000  0   -1089754.178   5585726.827   3872323.699
10 0 59681  85182.000000  0    -984153.740   6070592.122   3095378.796
10 0 59681  85302.000000  0    -853807.912   6447247.653   2263924.761
10 0 59681  85422.000000  0    -702951.037   6708707.182   1392601.295
10 0 59681  85542.000000  0    -536282.200   6850096.262    496755.186
10 0 59681  85662.000000  0    -358843.563   6868748.186   -407836.804
10 0 59681  85782.000000  0    -175890.869   6764256.698  -1305255.064
10 0 59681  85902.000000  0       7240.317   6538480.649  -2179727.782
10 0 59681  86022.000000  0     185268.098   6195501.976  -3015914.641
10 0 59681  86142.000000  0     353095.033   5741542.069  -3799179.454
10 0 59681  86262.000000  0     505933.703   5184837.284  -4515847.411
99
